{
  "norad_id": 66807,
  "name": "STARLINK-36000",
  "history": [
    {
      "epoch": "2026-05-03T19:55:28.873056Z",
      "apogee_km": 483.32127450758253,
      "perigee_km": 482.75865799635085,
      "latitude_deg": -4.260912161536503e-06,
      "longitude_deg": 2.2376361234042283,
      "height_km": 482.6833134177526,
      "semi_major_axis_km": 6861.176966251966,
      "eccentricity": 4.1e-05,
      "inclination_deg": 42.9978,
      "raan_deg": 162.8362,
      "arg_perigee_deg": 298.0297,
      "mean_anomaly_deg": 62.0513,
      "mean_motion_rev_day": 15.27583049
    },
    {
      "epoch": "2026-05-04T03:46:15.557664Z",
      "apogee_km": 483.8656161784247,
      "perigee_km": 482.23114459710905,
      "latitude_deg": -9.336784675292797e-06,
      "longitude_deg": -117.6254257042056,
      "height_km": 482.83476130081044,
      "semi_major_axis_km": 6861.185380387767,
      "eccentricity": 0.00011911,
      "inclination_deg": 43.0012,
      "raan_deg": 160.9899,
      "arg_perigee_deg": 269.3184,
      "mean_anomaly_deg": 90.7531,
      "mean_motion_rev_day": 15.27580239
    },
    {
      "epoch": "2026-05-05T12:43:32.329056Z",
      "apogee_km": 484.2282113138208,
      "perigee_km": 481.6703983393818,
      "latitude_deg": -6.652792886165533e-06,
      "longitude_deg": 98.94579155872634,
      "height_km": 482.37829812179393,
      "semi_major_axis_km": 6861.086304826601,
      "eccentricity": 0.0001864,
      "inclination_deg": 43.0043,
      "raan_deg": 153.2344,
      "arg_perigee_deg": 285.8153,
      "mean_anomaly_deg": 74.2493,
      "mean_motion_rev_day": 15.27613327
    },
    {
      "epoch": "2026-05-06T10:41:43.819584Z",
      "apogee_km": 484.44941151647345,
      "perigee_km": 481.5754132506154,
      "latitude_deg": 1.4029369171150336e-05,
      "longitude_deg": 123.33026287412943,
      "height_km": 482.35572180987054,
      "semi_major_axis_km": 6861.149412383545,
      "eccentricity": 0.00020944,
      "inclination_deg": 43.0034,
      "raan_deg": 148.069,
      "arg_perigee_deg": 287.5914,
      "mean_anomaly_deg": 72.4709,
      "mean_motion_rev_day": 15.27592251
    },
    {
      "epoch": "2026-05-07T18:04:52.349088Z",
      "apogee_km": 484.0239856611879,
      "perigee_km": 482.09187316906355,
      "latitude_deg": -5.118996639592389e-06,
      "longitude_deg": 3.8671331307238512,
      "height_km": 482.69048509867207,
      "semi_major_axis_km": 6861.194929415125,
      "eccentricity": 0.0001408,
      "inclination_deg": 43.0025,
      "raan_deg": 140.6804,
      "arg_perigee_deg": 278.5988,
      "mean_anomaly_deg": 81.4704,
      "mean_motion_rev_day": 15.2757705
    },
    {
      "epoch": "2026-05-08T17:37:12.859968Z",
      "apogee_km": 484.09307076134974,
      "perigee_km": 481.91671655268146,
      "latitude_deg": 2.5489724061721126e-06,
      "longitude_deg": 4.273462741110881,
      "height_km": 482.7971531272328,
      "semi_major_axis_km": 6861.141893657015,
      "eccentricity": 0.0001586,
      "inclination_deg": 43.0053,
      "raan_deg": 135.1389,
      "arg_perigee_deg": 269.2197,
      "mean_anomaly_deg": 90.8473,
      "mean_motion_rev_day": 15.27594762
    },
    {
      "epoch": "2026-05-09T17:09:32.508576Z",
      "apogee_km": 484.9838399853761,
      "perigee_km": 481.01810223807297,
      "latitude_deg": 3.0187192985049288e-05,
      "longitude_deg": 4.689917048821403,
      "height_km": 482.73320881822343,
      "semi_major_axis_km": 6861.137971111724,
      "eccentricity": 0.000289,
      "inclination_deg": 43.003,
      "raan_deg": 129.6039,
      "arg_perigee_deg": 271.3259,
      "mean_anomaly_deg": 88.7262,
      "mean_motion_rev_day": 15.27596072
    },
    {
      "epoch": "2026-05-10T16:41:54.234240Z",
      "apogee_km": 484.3580146381373,
      "perigee_km": 481.73018227742887,
      "latitude_deg": 4.322755528020919e-05,
      "longitude_deg": 5.091078590212303,
      "height_km": 482.95725099943024,
      "semi_major_axis_km": 6861.181098457783,
      "eccentricity": 0.0001915,
      "inclination_deg": 43.0008,
      "raan_deg": 124.0623,
      "arg_perigee_deg": 264.0595,
      "mean_anomaly_deg": 96.0039,
      "mean_motion_rev_day": 15.27581669
    }
  ]
}